start=new Date('2022-04-13T00:00:00.000Z').valueOf();
sats=[{"REF_FRAME":"TEME","ELEMENT_SET_NO":"999","NORAD_CAT_ID":"51886","RA_OF_ASC_NODE":"304.6554","MEAN_MOTION_DOT":"0.00064239","BSTAR":"0.00045890000000","MEAN_ANOMALY":"194.9852","INCLINATION":"53.2153","COUNTRY_CODE":"US","TLE_LINE2":"2 51886  53.2153 304.6554 0001134  59.3726 194.9852 15.73186359  3691","OBJECT_NAME":"STARLINK-3565","LAUNCH_DATE":"2022-03-03","GP_ID":"201096424","RCS_SIZE":"LARGE","MEAN_MOTION":"15.73186359","ARG_OF_PERICENTER":"59.3726","EPOCH":"2022-04-12T22:00:00.999936","MEAN_MOTION_DDOT":"0.0000000000000","REV_AT_EPOCH":"369","SEMIMAJOR_AXIS":"6727.934","APOAPSIS":"350.562","SITE":"AFETR","EPHEMERIS_TYPE":"0","MEAN_ELEMENT_THEORY":"SGP4","CLASSIFICATION_TYPE":"U","ECCENTRICITY":"0.00011340","CENTER_NAME":"EARTH","TIME_SYSTEM":"UTC","DECAY_DATE":null,"TLE_LINE1":"1 51886U 22022AL  22102.91667824  .00064239  00000-0  45890-3 0  9999","OBJECT_ID":"2022-022AL","PERIAPSIS":"349.036","FILE":"3398892","PERIOD":"91.534","OBJECT_TYPE":"PAYLOAD"},{"RCS_SIZE":"LARGE","GP_ID":"201096615","OBJECT_NAME":"STARLINK-3551","LAUNCH_DATE":"2022-03-03","TLE_LINE2":"2 51887  53.2137 304.6487 0001466  92.2571 164.6586 15.73219713  3690","EPOCH":"2022-04-12T22:00:00.999936","ARG_OF_PERICENTER":"92.2571","MEAN_MOTION":"15.73219713","MEAN_MOTION_DOT":"-0.00022273","RA_OF_ASC_NODE":"304.6487","ELEMENT_SET_NO":"999","NORAD_CAT_ID":"51887","REF_FRAME":"TEME","COUNTRY_CODE":"US","INCLINATION":"53.2137","MEAN_ANOMALY":"164.6586","BSTAR":"-0.00015456000000","DECAY_DATE":null,"TLE_LINE1":"1 51887U 22022AM  22102.91667824 -.00022273  00000-0 -15456-3 0  9999","PERIAPSIS":"348.718","OBJECT_ID":"2022-022AM","OBJECT_TYPE":"PAYLOAD","PERIOD":"91.532","FILE":"3398892","SITE":"AFETR","EPHEMERIS_TYPE":"0","MEAN_ELEMENT_THEORY":"SGP4","APOAPSIS":"350.690","REV_AT_EPOCH":"369","SEMIMAJOR_AXIS":"6727.839","MEAN_MOTION_DDOT":"0.0000000000000","TIME_SYSTEM":"UTC","CENTER_NAME":"EARTH","ECCENTRICITY":"0.00014660","CLASSIFICATION_TYPE":"U"},{"MEAN_MOTION":"15.73142236","ARG_OF_PERICENTER":"80.1574","EPOCH":"2022-04-12T22:00:00.999936","TLE_LINE2":"2 51888  53.2133 304.6498 0001257  80.1574 175.6670 15.73142236  3697","OBJECT_NAME":"STARLINK-3536","LAUNCH_DATE":"2022-03-03","GP_ID":"201096519","RCS_SIZE":"LARGE","BSTAR":"0.00042237000000","INCLINATION":"53.2133","MEAN_ANOMALY":"175.6670","COUNTRY_CODE":"US","REF_FRAME":"TEME","NORAD_CAT_ID":"51888","ELEMENT_SET_NO":"999","RA_OF_ASC_NODE":"304.6498","MEAN_MOTION_DOT":"0.00058927","FILE":"3398892","PERIOD":"91.537","OBJECT_TYPE":"PAYLOAD","TLE_LINE1":"1 51888U 22022AN  22102.91667824  .00058927  00000-0  42237-3 0  9990","DECAY_DATE":null,"OBJECT_ID":"2022-022AN","PERIAPSIS":"349.079","CLASSIFICATION_TYPE":"U","CENTER_NAME":"EARTH","ECCENTRICITY":"0.00012570","TIME_SYSTEM":"UTC","MEAN_MOTION_DDOT":"0.0000000000000","APOAPSIS":"350.771","REV_AT_EPOCH":"369","SEMIMAJOR_AXIS":"6728.060","SITE":"AFETR","EPHEMERIS_TYPE":"0","MEAN_ELEMENT_THEORY":"SGP4"},{"CLASSIFICATION_TYPE":"U","CENTER_NAME":"EARTH","ECCENTRICITY":"0.00013330","TIME_SYSTEM":"UTC","MEAN_MOTION_DDOT":"0.0000000000000","APOAPSIS":"350.693","REV_AT_EPOCH":"369","SEMIMAJOR_AXIS":"6727.931","SITE":"AFETR","MEAN_ELEMENT_THEORY":"SGP4","EPHEMERIS_TYPE":"0","FILE":"3398892","PERIOD":"91.534","OBJECT_TYPE":"PAYLOAD","DECAY_DATE":null,"TLE_LINE1":"1 51889U 22022AP  22102.91667824  .00068801  00000-0  49088-3 0  9994","OBJECT_ID":"2022-022AP","PERIAPSIS":"348.899","BSTAR":"0.00049088000000","INCLINATION":"53.2138","MEAN_ANOMALY":"170.8863","COUNTRY_CODE":"US","REF_FRAME":"TEME","NORAD_CAT_ID":"51889","ELEMENT_SET_NO":"999","RA_OF_ASC_NODE":"304.6449","MEAN_MOTION_DOT":"0.00068801","MEAN_MOTION":"15.73187396","ARG_OF_PERICENTER":"87.9821","EPOCH":"2022-04-12T22:00:00.999936","TLE_LINE2":"2 51889  53.2138 304.6449 0001333  87.9821 170.8863 15.73187396  3691","OBJECT_NAME":"STARLINK-3547","LAUNCH_DATE":"2022-03-03","GP_ID":"201096004","RCS_SIZE":"LARGE"},{"MEAN_MOTION_DOT":"-0.00032863","RA_OF_ASC_NODE":"304.6467","NORAD_CAT_ID":"51890","ELEMENT_SET_NO":"999","REF_FRAME":"TEME","COUNTRY_CODE":"US","INCLINATION":"53.2133","MEAN_ANOMALY":"182.6136","BSTAR":"-0.00023018000000","RCS_SIZE":"LARGE","GP_ID":"201096100","OBJECT_NAME":"STARLINK-3519","LAUNCH_DATE":"2022-03-03","TLE_LINE2":"2 51890  53.2133 304.6467 0001401  74.8657 182.6136 15.73246498  3699","EPOCH":"2022-04-12T22:00:00.999936","ARG_OF_PERICENTER":"74.8657","MEAN_MOTION":"15.73246498","EPHEMERIS_TYPE":"0","SITE":"AFETR","MEAN_ELEMENT_THEORY":"SGP4","APOAPSIS":"350.570","SEMIMAJOR_AXIS":"6727.763","REV_AT_EPOCH":"369","MEAN_MOTION_DDOT":"0.0000000000000","TIME_SYSTEM":"UTC","CENTER_NAME":"EARTH","ECCENTRICITY":"0.00014010","CLASSIFICATION_TYPE":"U","PERIAPSIS":"348.685","TLE_LINE1":"1 51890U 22022AQ  22102.91667824 -.00032863  00000-0 -23018-3 0  9992","DECAY_DATE":null,"OBJECT_ID":"2022-022AQ","OBJECT_TYPE":"PAYLOAD","PERIOD":"91.530","FILE":"3398892"},{"RA_OF_ASC_NODE":"304.6442","MEAN_MOTION_DOT":"0.00068954","REF_FRAME":"TEME","NORAD_CAT_ID":"51891","ELEMENT_SET_NO":"999","COUNTRY_CODE":"US","BSTAR":"0.00049296000000","INCLINATION":"53.2140","MEAN_ANOMALY":"192.0383","GP_ID":"201096671","RCS_SIZE":"LARGE","TLE_LINE2":"2 51891  53.2140 304.6442 0001147  67.4871 192.0383 15.73139671  3697","OBJECT_NAME":"STARLINK-3549","LAUNCH_DATE":"2022-03-03","EPOCH":"2022-04-12T22:00:00.999936","MEAN_MOTION":"15.73139671","ARG_OF_PERICENTER":"67.4871","APOAPSIS":"350.704","SEMIMAJOR_AXIS":"6728.067","REV_AT_EPOCH":"369","SITE":"AFETR","EPHEMERIS_TYPE":"0","MEAN_ELEMENT_THEORY":"SGP4","MEAN_MOTION_DDOT":"0.0000000000000","CENTER_NAME":"EARTH","ECCENTRICITY":"0.00011470","TIME_SYSTEM":"UTC","CLASSIFICATION_TYPE":"U","TLE_LINE1":"1 51891U 22022AR  22102.91667824  .00068954  00000-0  49296-3 0  9997","DECAY_DATE":null,"PERIAPSIS":"349.160","OBJECT_ID":"2022-022AR","PERIOD":"91.537","OBJECT_TYPE":"PAYLOAD","FILE":"3398892"},{"DECAY_DATE":null,"TLE_LINE1":"1 51892U 22022AS  22102.91667824  .00069817  00000-0  49825-3 0  9995","OBJECT_ID":"2022-022AS","PERIAPSIS":"348.881","FILE":"3398892","PERIOD":"91.535","OBJECT_TYPE":"PAYLOAD","MEAN_MOTION_DDOT":"0.0000000000000","REV_AT_EPOCH":"369","SEMIMAJOR_AXIS":"6727.964","APOAPSIS":"350.776","SITE":"AFETR","MEAN_ELEMENT_THEORY":"SGP4","EPHEMERIS_TYPE":"0","CLASSIFICATION_TYPE":"U","ECCENTRICITY":"0.00014080","CENTER_NAME":"EARTH","TIME_SYSTEM":"UTC","TLE_LINE2":"2 51892  53.2136 304.6456 0001408  75.6925 182.5527 15.73175995  3692","OBJECT_NAME":"STARLINK-3587","LAUNCH_DATE":"2022-03-03","GP_ID":"201096196","RCS_SIZE":"LARGE","MEAN_MOTION":"15.73175995","ARG_OF_PERICENTER":"75.6925","EPOCH":"2022-04-12T22:00:00.999936","REF_FRAME":"TEME","NORAD_CAT_ID":"51892","ELEMENT_SET_NO":"999","RA_OF_ASC_NODE":"304.6456","MEAN_MOTION_DOT":"0.00069817","BSTAR":"0.00049825000000","MEAN_ANOMALY":"182.5527","INCLINATION":"53.2136","COUNTRY_CODE":"US"},{"DECAY_DATE":null,"TLE_LINE1":"1 51893U 22022AT  22102.91667824  .00068526  00000-0  48905-3 0  9990","OBJECT_ID":"2022-022AT","PERIAPSIS":"348.911","FILE":"3398892","OBJECT_TYPE":"PAYLOAD","PERIOD":"91.534","MEAN_MOTION_DDOT":"0.0000000000000","MEAN_ELEMENT_THEORY":"SGP4","SITE":"AFETR","EPHEMERIS_TYPE":"0","APOAPSIS":"350.708","REV_AT_EPOCH":"369","SEMIMAJOR_AXIS":"6727.945","CLASSIFICATION_TYPE":"U","TIME_SYSTEM":"UTC","CENTER_NAME":"EARTH","ECCENTRICITY":"0.00013350","OBJECT_NAME":"STARLINK-3579","LAUNCH_DATE":"2022-03-03","TLE_LINE2":"2 51893  53.2140 304.6417 0001335  84.7301 175.9922 15.73182675  3691","RCS_SIZE":"LARGE","GP_ID":"201096330","ARG_OF_PERICENTER":"84.7301","MEAN_MOTION":"15.73182675","EPOCH":"2022-04-12T22:00:00.999936","NORAD_CAT_ID":"51893","ELEMENT_SET_NO":"999","REF_FRAME":"TEME","MEAN_MOTION_DOT":"0.00068526","RA_OF_ASC_NODE":"304.6417","INCLINATION":"53.2140","MEAN_ANOMALY":"175.9922","BSTAR":"0.00048905000000","COUNTRY_CODE":"US"},{"REF_FRAME":"TEME","ELEMENT_SET_NO":"999","NORAD_CAT_ID":"51894","RA_OF_ASC_NODE":"304.6411","MEAN_MOTION_DOT":"0.00068513","BSTAR":"0.00048922000000","MEAN_ANOMALY":"169.5938","INCLINATION":"53.2133","COUNTRY_CODE":"US","TLE_LINE2":"2 51894  53.2133 304.6411 0001248  90.5482 169.5938 15.73170392  3695","LAUNCH_DATE":"2022-03-03","OBJECT_NAME":"STARLINK-3595","GP_ID":"201096425","RCS_SIZE":"LARGE","MEAN_MOTION":"15.73170392","ARG_OF_PERICENTER":"90.5482","EPOCH":"2022-04-12T22:00:00.999936","MEAN_MOTION_DDOT":"0.0000000000000","SEMIMAJOR_AXIS":"6727.980","REV_AT_EPOCH":"369","APOAPSIS":"350.684","EPHEMERIS_TYPE":"0","SITE":"AFETR","MEAN_ELEMENT_THEORY":"SGP4","CLASSIFICATION_TYPE":"U","ECCENTRICITY":"0.00012480","CENTER_NAME":"EARTH","TIME_SYSTEM":"UTC","TLE_LINE1":"1 51894U 22022AU  22102.91667824  .00068513  00000-0  48922-3 0  9996","OBJECT_ID":"2022-022AU","DECAY_DATE":null,"PERIAPSIS":"349.005","FILE":"3398892","PERIOD":"91.535","OBJECT_TYPE":"PAYLOAD"},{"TLE_LINE1":"1 51895U 22022AV  22102.91667824  .00069782  00000-0  49798-3 0  9998","DECAY_DATE":null,"PERIAPSIS":"348.967","OBJECT_ID":"2022-022AV","FILE":"3398892","OBJECT_TYPE":"PAYLOAD","PERIOD":"91.535","MEAN_MOTION_DDOT":"0.0000000000000","MEAN_ELEMENT_THEORY":"SGP4","SITE":"AFETR","EPHEMERIS_TYPE":"0","APOAPSIS":"350.684","REV_AT_EPOCH":"369","SEMIMAJOR_AXIS":"6727.960","CLASSIFICATION_TYPE":"U","TIME_SYSTEM":"UTC","CENTER_NAME":"EARTH","ECCENTRICITY":"0.00012760","OBJECT_NAME":"STARLINK-3594","LAUNCH_DATE":"2022-03-03","TLE_LINE2":"2 51895  53.2139 304.6388 0001276  77.1649 184.9087 15.73177130  3695","RCS_SIZE":"LARGE","GP_ID":"201096616","ARG_OF_PERICENTER":"77.1649","MEAN_MOTION":"15.73177130","EPOCH":"2022-04-12T22:00:00.999936","NORAD_CAT_ID":"51895","ELEMENT_SET_NO":"999","REF_FRAME":"TEME","MEAN_MOTION_DOT":"0.00069782","RA_OF_ASC_NODE":"304.6388","INCLINATION":"53.2139","MEAN_ANOMALY":"184.9087","BSTAR":"0.00049798000000","COUNTRY_CODE":"US"}];
